[{"OBJECT_NAME":"ONEWEB-0288","OBJECT_ID":"2021-075D","EPOCH":"2026-01-17T12:38:17.335392","MEAN_MOTION":13.12445424,"ECCENTRICITY":0.00017514,"INCLINATION":87.8929,"RA_OF_ASC_NODE":20.5672,"ARG_OF_PERICENTER":92.3678,"MEAN_ANOMALY":267.7651,"EPHEMERIS_TYPE":0,"CLASSIFICATION_TYPE":"U","NORAD_CAT_ID":49078,"ELEMENT_SET_NO":999,"REV_AT_EPOCH":21542,"BSTAR":0.0011842907,"MEAN_MOTION_DOT":4.39e-6,"MEAN_MOTION_DDOT":0},{"OBJECT_NAME":"ONEWEB-0289","OBJECT_ID":"2021-075E","EPOCH":"2026-01-17T13:09:03.546144","MEAN_MOTION":13.17649868,"ECCENTRICITY":0.00015757,"INCLINATION":87.9079,"RA_OF_ASC_NODE":35.8188,"ARG_OF_PERICENTER":103.7143,"MEAN_ANOMALY":256.4164,"EPHEMERIS_TYPE":0,"CLASSIFICATION_TYPE":"U","NORAD_CAT_ID":49079,"ELEMENT_SET_NO":999,"REV_AT_EPOCH":21436,"BSTAR":-0.0017182813,"MEAN_MOTION_DOT":-6.54e-6,"MEAN_MOTION_DDOT":0},{"OBJECT_NAME":"ONEWEB-0290","OBJECT_ID":"2021-075F","EPOCH":"2026-01-17T14:19:44.974848","MEAN_MOTION":13.17649973,"ECCENTRICITY":0.0001236,"INCLINATION":87.9093,"RA_OF_ASC_NODE":35.7738,"ARG_OF_PERICENTER":102.4646,"MEAN_ANOMALY":257.6624,"EPHEMERIS_TYPE":0,"CLASSIFICATION_TYPE":"U","NORAD_CAT_ID":49080,"ELEMENT_SET_NO":999,"REV_AT_EPOCH":21378,"BSTAR":-3.786394e-6,"MEAN_MOTION_DOT":1.1e-7,"MEAN_MOTION_DDOT":0},{"OBJECT_NAME":"ONEWEB-0291","OBJECT_ID":"2021-075G","EPOCH":"2026-01-17T12:08:31.619328","MEAN_MOTION":13.17650405,"ECCENTRICITY":0.00019588,"INCLINATION":87.9095,"RA_OF_ASC_NODE":35.7997,"ARG_OF_PERICENTER":104.8135,"MEAN_ANOMALY":255.3213,"EPHEMERIS_TYPE":0,"CLASSIFICATION_TYPE":"U","NORAD_CAT_ID":49081,"ELEMENT_SET_NO":999,"REV_AT_EPOCH":21376,"BSTAR":-4.7299701e-5,"MEAN_MOTION_DOT":-5.0e-8,"MEAN_MOTION_DDOT":0},{"OBJECT_NAME":"ONEWEB-0293","OBJECT_ID":"2021-075H","EPOCH":"2026-01-17T14:34:19.500096","MEAN_MOTION":13.17650596,"ECCENTRICITY":0.00016987,"INCLINATION":87.908,"RA_OF_ASC_NODE":35.7966,"ARG_OF_PERICENTER":95.595,"MEAN_ANOMALY":264.5375,"EPHEMERIS_TYPE":0,"CLASSIFICATION_TYPE":"U","NORAD_CAT_ID":49082,"ELEMENT_SET_NO":999,"REV_AT_EPOCH":21380,"BSTAR":-2.0442696e-5,"MEAN_MOTION_DOT":5.0e-8,"MEAN_MOTION_DDOT":0},{"OBJECT_NAME":"ONEWEB-0294","OBJECT_ID":"2021-075J","EPOCH":"2026-01-17T12:48:02.921760","MEAN_MOTION":13.12444963,"ECCENTRICITY":0.00015028,"INCLINATION":87.893,"RA_OF_ASC_NODE":20.5684,"ARG_OF_PERICENTER":97.9295,"MEAN_ANOMALY":262.2004,"EPHEMERIS_TYPE":0,"CLASSIFICATION_TYPE":"U","NORAD_CAT_ID":49083,"ELEMENT_SET_NO":999,"REV_AT_EPOCH":21481,"BSTAR":0.0012230778,"MEAN_MOTION_DOT":4.53e-6,"MEAN_MOTION_DDOT":0},{"OBJECT_NAME":"ONEWEB-0295","OBJECT_ID":"2021-075K","EPOCH":"2026-01-17T14:33:05.497632","MEAN_MOTION":13.17647081,"ECCENTRICITY":0.00020396,"INCLINATION":87.9081,"RA_OF_ASC_NODE":35.8009,"ARG_OF_PERICENTER":100.7117,"MEAN_ANOMALY":259.4244,"EPHEMERIS_TYPE":0,"CLASSIFICATION_TYPE":"U","NORAD_CAT_ID":49084,"ELEMENT_SET_NO":999,"REV_AT_EPOCH":21376,"BSTAR":-9.8238961e-5,"MEAN_MOTION_DOT":-2.5e-7,"MEAN_MOTION_DDOT":0},{"OBJECT_NAME":"ONEWEB-0296","OBJECT_ID":"2021-075L","EPOCH":"2026-01-17T10:28:58.866816","MEAN_MOTION":13.1244643,"ECCENTRICITY":0.00019031,"INCLINATION":87.8927,"RA_OF_ASC_NODE":20.5904,"ARG_OF_PERICENTER":99.0622,"MEAN_ANOMALY":261.0722,"EPHEMERIS_TYPE":0,"CLASSIFICATION_TYPE":"U","NORAD_CAT_ID":49085,"ELEMENT_SET_NO":999,"REV_AT_EPOCH":21480,"BSTAR":0.00061553502,"MEAN_MOTION_DOT":2.34e-6,"MEAN_MOTION_DDOT":0},{"OBJECT_NAME":"ONEWEB-0297","OBJECT_ID":"2021-075M","EPOCH":"2026-01-17T13:02:41.624448","MEAN_MOTION":13.1244318,"ECCENTRICITY":0.00018445,"INCLINATION":87.8918,"RA_OF_ASC_NODE":20.5989,"ARG_OF_PERICENTER":90.4872,"MEAN_ANOMALY":269.6468,"EPHEMERIS_TYPE":0,"CLASSIFICATION_TYPE":"U","NORAD_CAT_ID":49086,"ELEMENT_SET_NO":999,"REV_AT_EPOCH":21542,"BSTAR":0.00052893632,"MEAN_MOTION_DOT":2.03e-6,"MEAN_MOTION_DDOT":0},{"OBJECT_NAME":"ONEWEB-0298","OBJECT_ID":"2021-075N","EPOCH":"2026-01-17T14:39:21.686688","MEAN_MOTION":13.17659725,"ECCENTRICITY":0.00018996,"INCLINATION":87.9083,"RA_OF_ASC_NODE":35.7967,"ARG_OF_PERICENTER":88.8952,"MEAN_ANOMALY":271.2397,"EPHEMERIS_TYPE":0,"CLASSIFICATION_TYPE":"U","NORAD_CAT_ID":49087,"ELEMENT_SET_NO":999,"REV_AT_EPOCH":21379,"BSTAR":0.0030600799,"MEAN_MOTION_DOT":1.201e-5,"MEAN_MOTION_DDOT":0},{"OBJECT_NAME":"ONEWEB-0299","OBJECT_ID":"2021-075P","EPOCH":"2026-01-17T14:41:36.654720","MEAN_MOTION":13.176504,"ECCENTRICITY":0.00019615,"INCLINATION":87.9093,"RA_OF_ASC_NODE":35.7616,"ARG_OF_PERICENTER":95.0557,"MEAN_ANOMALY":265.0798,"EPHEMERIS_TYPE":0,"CLASSIFICATION_TYPE":"U","NORAD_CAT_ID":49088,"ELEMENT_SET_NO":999,"REV_AT_EPOCH":21377,"BSTAR":0.00015859378,"MEAN_MOTION_DOT":7.4e-7,"MEAN_MOTION_DDOT":0},{"OBJECT_NAME":"ONEWEB-0300","OBJECT_ID":"2021-075Q","EPOCH":"2026-01-17T12:51:43.828416","MEAN_MOTION":13.12443901,"ECCENTRICITY":0.00019859,"INCLINATION":87.893,"RA_OF_ASC_NODE":20.564,"ARG_OF_PERICENTER":79.7901,"MEAN_ANOMALY":280.3452,"EPHEMERIS_TYPE":0,"CLASSIFICATION_TYPE":"U","NORAD_CAT_ID":49089,"ELEMENT_SET_NO":999,"REV_AT_EPOCH":21544,"BSTAR":0.0010027102,"MEAN_MOTION_DOT":3.73e-6,"MEAN_MOTION_DDOT":0},{"OBJECT_NAME":"ONEWEB-0301","OBJECT_ID":"2021-075R","EPOCH":"2026-01-17T12:28:31.435392","MEAN_MOTION":13.12446502,"ECCENTRICITY":0.00019194,"INCLINATION":87.8928,"RA_OF_ASC_NODE":20.5679,"ARG_OF_PERICENTER":77.4113,"MEAN_ANOMALY":282.723,"EPHEMERIS_TYPE":0,"CLASSIFICATION_TYPE":"U","NORAD_CAT_ID":49090,"ELEMENT_SET_NO":999,"REV_AT_EPOCH":21480,"BSTAR":0.00071792858,"MEAN_MOTION_DOT":2.71e-6,"MEAN_MOTION_DDOT":0},{"OBJECT_NAME":"ONEWEB-0302","OBJECT_ID":"2021-075S","EPOCH":"2026-01-17T12:09:01.296000","MEAN_MOTION":13.12444411,"ECCENTRICITY":0.00016676,"INCLINATION":87.8931,"RA_OF_ASC_NODE":20.579,"ARG_OF_PERICENTER":100.451,"MEAN_ANOMALY":259.6806,"EPHEMERIS_TYPE":0,"CLASSIFICATION_TYPE":"U","NORAD_CAT_ID":49091,"ELEMENT_SET_NO":999,"REV_AT_EPOCH":21478,"BSTAR":-0.00049016493,"MEAN_MOTION_DOT":-1.64e-6,"MEAN_MOTION_DDOT":0},{"OBJECT_NAME":"ONEWEB-0304","OBJECT_ID":"2021-075T","EPOCH":"2026-01-17T12:15:49.174848","MEAN_MOTION":13.17648994,"ECCENTRICITY":0.00018966,"INCLINATION":87.9092,"RA_OF_ASC_NODE":35.8124,"ARG_OF_PERICENTER":95.289,"MEAN_ANOMALY":264.8458,"EPHEMERIS_TYPE":0,"CLASSIFICATION_TYPE":"U","NORAD_CAT_ID":49092,"ELEMENT_SET_NO":999,"REV_AT_EPOCH":21373,"BSTAR":4.6172668e-5,"MEAN_MOTION_DOT":3.1e-7,"MEAN_MOTION_DDOT":0},{"OBJECT_NAME":"ONEWEB-0305","OBJECT_ID":"2021-075U","EPOCH":"2026-01-17T12:06:06.604704","MEAN_MOTION":13.17649945,"ECCENTRICITY":0.00021832,"INCLINATION":87.9096,"RA_OF_ASC_NODE":35.7915,"ARG_OF_PERICENTER":99.9835,"MEAN_ANOMALY":260.1543,"EPHEMERIS_TYPE":0,"CLASSIFICATION_TYPE":"U","NORAD_CAT_ID":49093,"ELEMENT_SET_NO":999,"REV_AT_EPOCH":21376,"BSTAR":0.0001644229,"MEAN_MOTION_DOT":7.7e-7,"MEAN_MOTION_DDOT":0},{"OBJECT_NAME":"ONEWEB-0308","OBJECT_ID":"2021-075V","EPOCH":"2026-01-17T11:59:14.288352","MEAN_MOTION":13.12443251,"ECCENTRICITY":0.00017509,"INCLINATION":87.8929,"RA_OF_ASC_NODE":20.5734,"ARG_OF_PERICENTER":88.6853,"MEAN_ANOMALY":271.4476,"EPHEMERIS_TYPE":0,"CLASSIFICATION_TYPE":"U","NORAD_CAT_ID":49094,"ELEMENT_SET_NO":999,"REV_AT_EPOCH":21479,"BSTAR":-0.0012523227,"MEAN_MOTION_DOT":-4.38e-6,"MEAN_MOTION_DDOT":0},{"OBJECT_NAME":"ONEWEB-0309","OBJECT_ID":"2021-075W","EPOCH":"2026-01-17T12:10:57.411552","MEAN_MOTION":13.17650566,"ECCENTRICITY":0.00016159,"INCLINATION":87.9092,"RA_OF_ASC_NODE":35.8062,"ARG_OF_PERICENTER":106.5546,"MEAN_ANOMALY":253.5763,"EPHEMERIS_TYPE":0,"CLASSIFICATION_TYPE":"U","NORAD_CAT_ID":49095,"ELEMENT_SET_NO":999,"REV_AT_EPOCH":21373,"BSTAR":8.2762291e-5,"MEAN_MOTION_DOT":4.5e-7,"MEAN_MOTION_DDOT":0},{"OBJECT_NAME":"ONEWEB-0310","OBJECT_ID":"2021-075X","EPOCH":"2026-01-17T12:21:11.813184","MEAN_MOTION":13.12446686,"ECCENTRICITY":0.00017042,"INCLINATION":87.8922,"RA_OF_ASC_NODE":20.6046,"ARG_OF_PERICENTER":88.2798,"MEAN_ANOMALY":271.8526,"EPHEMERIS_TYPE":0,"CLASSIFICATION_TYPE":"U","NORAD_CAT_ID":49096,"ELEMENT_SET_NO":999,"REV_AT_EPOCH":21542,"BSTAR":0.000499827,"MEAN_MOTION_DOT":1.93e-6,"MEAN_MOTION_DDOT":0},{"OBJECT_NAME":"ONEWEB-0311","OBJECT_ID":"2021-075Y","EPOCH":"2026-01-17T14:10:01.718688","MEAN_MOTION":13.17648351,"ECCENTRICITY":0.00021404,"INCLINATION":87.9092,"RA_OF_ASC_NODE":35.7848,"ARG_OF_PERICENTER":95.2597,"MEAN_ANOMALY":264.8779,"EPHEMERIS_TYPE":0,"CLASSIFICATION_TYPE":"U","NORAD_CAT_ID":49097,"ELEMENT_SET_NO":999,"REV_AT_EPOCH":21379,"BSTAR":0.00014512945,"MEAN_MOTION_DOT":6.9e-7,"MEAN_MOTION_DDOT":0},{"OBJECT_NAME":"ONEWEB-0312","OBJECT_ID":"2021-075Z","EPOCH":"2026-01-17T14:31:53.704416","MEAN_MOTION":13.17650314,"ECCENTRICITY":0.00019878,"INCLINATION":87.9083,"RA_OF_ASC_NODE":35.8046,"ARG_OF_PERICENTER":102.9126,"MEAN_ANOMALY":257.2228,"EPHEMERIS_TYPE":0,"CLASSIFICATION_TYPE":"U","NORAD_CAT_ID":49098,"ELEMENT_SET_NO":999,"REV_AT_EPOCH":21377,"BSTAR":-3.0469129e-5,"MEAN_MOTION_DOT":1.0e-8,"MEAN_MOTION_DDOT":0},{"OBJECT_NAME":"ONEWEB-0313","OBJECT_ID":"2021-075AA","EPOCH":"2026-01-17T14:38:59.498304","MEAN_MOTION":13.176503,"ECCENTRICITY":0.00018916,"INCLINATION":87.908,"RA_OF_ASC_NODE":35.8106,"ARG_OF_PERICENTER":93.4981,"MEAN_ANOMALY":266.6367,"EPHEMERIS_TYPE":0,"CLASSIFICATION_TYPE":"U","NORAD_CAT_ID":49099,"ELEMENT_SET_NO":999,"REV_AT_EPOCH":21376,"BSTAR":0.0001214212,"MEAN_MOTION_DOT":6.0e-7,"MEAN_MOTION_DDOT":0},{"OBJECT_NAME":"ONEWEB-0314","OBJECT_ID":"2021-075AB","EPOCH":"2026-01-17T12:01:14.247840","MEAN_MOTION":13.17650629,"ECCENTRICITY":0.00020206,"INCLINATION":87.9095,"RA_OF_ASC_NODE":35.7898,"ARG_OF_PERICENTER":102.9507,"MEAN_ANOMALY":257.185,"EPHEMERIS_TYPE":0,"CLASSIFICATION_TYPE":"U","NORAD_CAT_ID":49100,"ELEMENT_SET_NO":999,"REV_AT_EPOCH":21372,"BSTAR":0.00013300369,"MEAN_MOTION_DOT":6.5e-7,"MEAN_MOTION_DDOT":0}]
